{
  "norad_id": 54810,
  "name": "STARLINK-5408",
  "history": [
    {
      "epoch": "2026-03-28T20:08:25.277280",
      "apogee_km": 540.7713214251553,
      "perigee_km": 538.698865303425,
      "latitude_deg": 40.041399134450764,
      "longitude_deg": 101.56141920015216,
      "semi_major_axis_km": 6917.87209336429,
      "eccentricity": 0.00014979,
      "inclination_deg": 53.2164,
      "raan_deg": 297.9259,
      "arg_perigee_deg": 97.3411,
      "mean_anomaly_deg": 262.7751,
      "mean_motion_rev_day": 15.08842714
    }
  ]
}