{"fetched_at":"2026-03-30T06:02:59Z","count":15439,"tles":[{"name":"STARLINK-5408","line1":"1 54810U 22175BE  26087.83918145  .00001712  00000+0  12560-3 0  9994","line2":"2 54810  53.2164 297.9259 0001497  97.3411 262.7751 15.08842714183091","category":"Starlink"}]}